NORAD_CAT_ID,OBJECT_NAME,OBJECT_TYPE,EPOCH,MEAN_MOTION,ECCENTRICITY,INCLINATION,RA_OF_ASC_NODE,ARG_OF_PERICENTER,MEAN_ANOMALY,BSTAR,MEAN_MOTION_DOT,MEAN_MOTION_DDOT,TLE_LINE0,TLE_LINE1,TLE_LINE2,SEMIMAJOR_AXIS,PERIOD,APOGEE,PERIGEE,DECAYED
52123.0,STARLINK-3725,PAYLOAD,2024-03-01 12:11:10,15.0884021,0.0001411,53.2174,142.8807,90.3509,269.7644,0.00011638,1.565e-05,0.0,0 STARLINK-3725,1 52123U 22029AM  24061.50775592  .00001565  00000-0  11638-3 0  9990,2 52123  53.2174 142.8807 0001411  90.3509 269.7644 15.08840210109490,6917.88,95.438,540.721,538.769,0.0
52123.0,STARLINK-3725,PAYLOAD,2024-03-02 12:01:56,15.08847204,0.0001436,53.2179,138.4219,94.9615,265.1541,7.429e-05,8.95e-06,0.0,0 STARLINK-3725,1 52123U 22029AM  24062.50135085  .00000895  00000-0  74290-4 0  9997,2 52123  53.2179 138.4219 0001436  94.9615 265.1541 15.08847204109641,6917.858,95.437,540.717,538.73,0.0
52123.0,STARLINK-3725,PAYLOAD,2024-03-03 11:52:44,15.08834188,0.0001717,53.2184,133.9618,103.0667,257.0517,-9.2292e-08,-2.9e-06,0.0,0 STARLINK-3725,1 52123U 22029AM  24063.49495881 -.00000290  00000-0 -92292-7 0  9995,2 52123  53.2184 133.9618 0001717 103.0667 257.0517 15.08834188109797,6917.898,95.438,540.951,538.575,0.0
52123.0,STARLINK-3725,PAYLOAD,2024-03-03 13:28:07,15.08835548,0.0001499,53.2183,133.6632,94.759,265.3573,1.5322e-05,-4.4e-07,0.0,0 STARLINK-3725,1 52123U 22029AM  24063.56120033 -.00000044  00000-0  15322-4 0  9999,2 52123  53.2183 133.6632 0001499  94.7590 265.3573 15.08835548109804,6917.894,95.438,540.796,538.722,0.0
52123.0,STARLINK-3725,PAYLOAD,2024-03-04 11:43:30,15.08856925,0.0001785,53.2183,129.4992,85.0984,275.0212,6.3965e-05,7.3e-06,0.0,0 STARLINK-3725,1 52123U 22029AM  24064.48854658  .00000730  00000-0  63965-4 0  9995,2 52123  53.2183 129.4992 0001785  85.0984 275.0212 15.08856925109949,6917.829,95.436,540.928,538.459,0.0
52123.0,STARLINK-3725,PAYLOAD,2024-03-04 21:15:49,15.08841565,0.0001402,53.2181,127.7128,87.9357,272.1796,-1.2565e-05,-4.88e-06,0.0,0 STARLINK-3725,1 52123U 22029AM  24064.88599512 -.00000488  00000-0 -12565-4 0  9996,2 52123  53.2181 127.7128 0001402  87.9357 272.1796 15.08841565110008,6917.876,95.437,540.71,538.771,0.0
52123.0,STARLINK-3725,PAYLOAD,2024-03-05 03:37:24,15.08814846,0.0001537,53.2166,126.5242,87.1161,273.0007,-0.0001398,-2.511e-05,0.0,0 STARLINK-3725,1 52123U 22029AM  24065.15098014 -.00002511  00000-0 -13980-3 0  9998,2 52123  53.2166 126.5242 0001537  87.1161 273.0007 15.08814846110040,6917.957,95.439,540.886,538.759,0.0
52123.0,STARLINK-3725,PAYLOAD,2024-03-05 13:09:42,15.0882299,0.0001596,53.2164,124.7413,89.5202,270.5973,-0.00014016,-2.517e-05,0.0,0 STARLINK-3725,1 52123U 22029AM  24065.54841012 -.00002517  00000-0 -14016-3 0  9992,2 52123  53.2164 124.7413 0001596  89.5202 270.5973 15.08822990110105,6917.932,95.439,540.901,538.693,0.0
52123.0,STARLINK-3725,PAYLOAD,2024-03-06 01:52:47,15.08838542,0.0001526,53.2161,122.3635,93.0432,267.0734,-9.3931e-05,-1.783e-05,0.0,0 STARLINK-3725,1 52123U 22029AM  24066.07832726 -.00001783  00000-0 -93931-4 0  9991,2 52123  53.2161 122.3635 0001526  93.0432 267.0734 15.08838542110184,6917.885,95.438,540.806,538.694,0.0
52123.0,STARLINK-3725,PAYLOAD,2024-03-06 13:00:29,15.0884628,0.0001571,53.2157,120.2813,102.4489,257.6679,0.00065859,0.00010211,0.0,0 STARLINK-3725,1 52123U 22029AM  24066.54200928  .00010211  00000-0  65859-3 0  9997,2 52123  53.2157 120.2813 0001571 102.4489 257.6679 15.08846280110250,6917.861,95.437,540.813,538.639,0.0
52123.0,STARLINK-3725,PAYLOAD,2024-03-07 09:40:30,15.0884818,0.0001517,53.2158,116.4132,96.4418,263.6747,0.00042029,6.409e-05,0.0,0 STARLINK-3725,1 52123U 22029AM  24067.40313114  .00006409  00000-0  42029-3 0  9993,2 52123  53.2158 116.4132 0001517  96.4418 263.6747 15.08848180110384,6917.855,95.437,540.77,538.671,0.0
52123.0,STARLINK-3725,PAYLOAD,2024-03-08 03:09:44,15.08850195,0.0001589,53.2164,113.1387,105.9303,254.1864,0.000334,5.033e-05,0.0,0 STARLINK-3725,1 52123U 22029AM  24068.13176746  .00005033  00000-0  33400-3 0  9997,2 52123  53.2164 113.1387 0001589 105.9303 254.1864 15.08850195110491,6917.849,95.437,540.813,538.615,0.0
52123.0,STARLINK-3725,PAYLOAD,2024-03-08 09:31:16,15.08855889,0.0001521,53.2155,111.9529,95.3752,264.7413,0.00029718,4.447e-05,0.0,0 STARLINK-3725,1 52123U 22029AM  24068.39672396  .00004447  00000-0  29718-3 0  9992,2 52123  53.2155 111.9529 0001521  95.3752 264.7413 15.08855889110538,6917.832,95.437,540.749,538.645,0.0
52123.0,STARLINK-3725,PAYLOAD,2024-03-09 03:00:31,15.08839668,0.0001545,53.2154,108.6822,96.033,264.0838,-3.1354e-05,-7.87e-06,0.0,0 STARLINK-3725,1 52123U 22029AM  24069.12536766 -.00000787  00000-0 -31354-4 0  9999,2 52123  53.2154 108.6822 0001545  96.0330 264.0838 15.08839668110645,6917.881,95.438,540.815,538.678,0.0
52123.0,STARLINK-3725,PAYLOAD,2024-03-09 09:22:04,15.08839671,0.0001469,53.2163,107.4946,85.6096,274.5064,5.7596e-05,6.29e-06,0.0,0 STARLINK-3725,1 52123U 22029AM  24069.39033150  .00000629  00000-0  57596-4 0  9996,2 52123  53.2163 107.4946 0001469  85.6096 274.5064 15.08839671110682,6917.881,95.438,540.763,538.73,0.0
52123.0,STARLINK-3725,PAYLOAD,2024-03-09 18:54:23,15.08837097,0.0001473,53.2166,105.7109,91.6868,268.4293,2.1125e-06,-2.54e-06,0.0,0 STARLINK-3725,1 52123U 22029AM  24069.78777343 -.00000254  00000-0  21125-5 0  9993,2 52123  53.2166 105.7109 0001473  91.6868 268.4293 15.08837097110749,6917.889,95.438,540.773,538.735,0.0
52123.0,STARLINK-3725,PAYLOAD,2024-03-10 07:37:28,15.08839539,0.0001477,53.2164,103.3296,90.5038,269.6124,-8.3259e-06,-4.2e-06,0.0,0 STARLINK-3725,1 52123U 22029AM  24070.31769238 -.00000420  00000-0 -83259-5 0  9990,2 52123  53.2164 103.3296 0001477  90.5038 269.6124 15.08839539110827,6917.882,95.438,540.769,538.725,0.0
52123.0,STARLINK-3725,PAYLOAD,2024-03-10 18:45:10,15.08844124,0.0001486,53.2167,101.2486,87.1119,273.0043,6.5518e-06,-1.84e-06,0.0,0 STARLINK-3725,1 52123U 22029AM  24070.78136870 -.00000184  00000-0  65518-5 0  9995,2 52123  53.2167 101.2486 0001486  87.1119 273.0043 15.08844124110892,6917.868,95.437,540.761,538.705,0.0
52123.0,STARLINK-3725,PAYLOAD,2024-03-11 09:03:38,15.08840806,0.0001513,53.2168,98.5736,95.339,264.7775,0.00015806,2.228e-05,0.0,0 STARLINK-3725,1 52123U 22029AM  24071.37752959  .00002228  00000-0  15806-3 0  9996,2 52123  53.2168  98.5736 0001513  95.3390 264.7775 15.08840806110984,6917.878,95.438,540.79,538.696,0.0
52123.0,STARLINK-3725,PAYLOAD,2024-03-12 10:29:48,15.08842882,0.0001576,53.2168,93.816,102.0975,258.0194,0.00011402,1.527e-05,0.0,0 STARLINK-3725,1 52123U 22029AM  24072.43737025  .00001527  00000-0  11402-3 0  9990,2 52123  53.2168  93.8160 0001576 102.0975 258.0194 15.08842882111143,6917.872,95.437,540.827,538.646,0.0
52123.0,STARLINK-3725,PAYLOAD,2024-03-13 10:20:35,15.0884693,0.0001538,53.2171,89.353,94.105,266.0118,5.1269e-05,5.28e-06,0.0,0 STARLINK-3725,1 52123U 22029AM  24073.43096856  .00000528  00000-0  51269-4 0  9997,2 52123  53.2171  89.3530 0001538  94.1050 266.0118 15.08846930111290,6917.859,95.437,540.788,538.66,0.0
52123.0,STARLINK-3725,PAYLOAD,2024-03-13 18:17:31,15.08847765,0.0001392,53.2163,87.8622,85.4887,274.6264,-8.0576e-05,-1.57e-05,0.0,0 STARLINK-3725,1 52123U 22029AM  24073.76216908 -.00001570  00000-0 -80576-4 0  9998,2 52123  53.2163  87.8622 0001392  85.4887 274.6264 15.08847765111345,6917.857,95.437,540.685,538.759,0.0
52123.0,STARLINK-3725,PAYLOAD,2024-03-14 05:25:13,15.08838896,0.0001494,53.2164,85.7803,96.9725,263.1437,7.3963e-05,8.89e-06,0.0,0 STARLINK-3725,1 52123U 22029AM  24074.22585328  .00000889  00000-0  73963-4 0  9997,2 52123  53.2164  85.7803 0001494  96.9725 263.1437 15.08838896111413,6917.884,95.438,540.782,538.715,0.0
52123.0,STARLINK-3725,PAYLOAD,2024-03-14 07:00:36,15.0883818,0.0001402,53.2162,85.4838,96.8879,263.2273,7.3772e-05,8.86e-06,0.0,0 STARLINK-3725,1 52123U 22029AM  24074.29209355  .00000886  00000-0  73772-4 0  9992,2 52123  53.2162  85.4838 0001402  96.8879 263.2273 15.08838180111420,6917.886,95.438,540.721,538.781,0.0
52123.0,STARLINK-3725,PAYLOAD,2024-03-14 10:11:22,15.08843406,0.0001526,53.2169,84.8888,99.7162,260.4002,5.8408e-05,6.42e-06,0.0,0 STARLINK-3725,1 52123U 22029AM  24074.42457036  .00000642  00000-0  58408-4 0  9997,2 52123  53.2169  84.8888 0001526  99.7162 260.4002 15.08843406111447,6917.87,95.437,540.791,538.679,0.0
52123.0,STARLINK-3725,PAYLOAD,2024-03-15 10:02:09,15.08842666,0.0001569,53.2171,80.428,102.7908,257.326,6.5684e-05,7.58e-06,0.0,0 STARLINK-3725,1 52123U 22029AM  24075.41817089  .00000758  00000-0  65684-4 0  9997,2 52123  53.2171  80.4280 0001569 102.7908 257.3260 15.08842666111592,6917.872,95.437,540.823,538.652,0.0
52123.0,STARLINK-3725,PAYLOAD,2024-03-16 05:06:47,15.08837858,0.0001578,53.2171,76.8582,103.5645,256.5523,5.0537e-05,5.16e-06,0.0,0 STARLINK-3725,1 52123U 22029AM  24076.21305523  .00000516  00000-0  50537-4 0  9994,2 52123  53.2171  76.8582 0001578 103.5645 256.5523 15.08837858111717,6917.887,95.438,540.844,538.66,0.0
52123.0,STARLINK-3725,PAYLOAD,2024-03-16 09:52:57,15.08837326,0.0001711,53.218,75.9674,105.6711,254.447,4.0893e-05,3.63e-06,0.0,0 STARLINK-3725,1 52123U 22029AM  24076.41177612  .00000363  00000-0  40893-4 0  9996,2 52123  53.2180  75.9674 0001711 105.6711 254.4470 15.08837326111746,6917.889,95.438,540.937,538.57,0.0
52123.0,STARLINK-3725,PAYLOAD,2024-03-17 04:57:35,15.08839225,0.0001679,53.218,72.3989,108.7129,251.4045,5.9045e-05,6.52e-06,0.0,0 STARLINK-3725,1 52123U 22029AM  24077.20665571  .00000652  00000-0  59045-4 0  9990,2 52123  53.2180  72.3989 0001679 108.7129 251.4045 15.08839225111864,6917.883,95.438,540.909,538.586,0.0
52123.0,STARLINK-3725,PAYLOAD,2024-03-18 04:48:21,15.08840952,0.0001609,53.2179,67.939,104.8495,255.2675,9.5436e-05,1.231e-05,0.0,0 STARLINK-3725,1 52123U 22029AM  24078.20025446  .00001231  00000-0  95436-4 0  9990,2 52123  53.2179  67.9390 0001609 104.8495 255.2675 15.08840952112012,6917.877,95.437,540.856,538.629,0.0
